#cP2018  7 13  0  0  0.00000000     192 ORBIT IGS14 HLM  IGS
## 2009 432000.00000000   900.00000000 58312 0.0000000000000
+   31   G01G02G03G05G06G07G08G09G10G11G12G13G14G15G16G17G18
+        G19G20G21G22G23G24G25G26G27G28G29G30G31G32  0  0  0
+          0  0  0  0  0  0  0  0  0  0  0  0  0  0  0  0  0
+          0  0  0  0  0  0  0  0  0  0  0  0  0  0  0  0  0
+          0  0  0  0  0  0  0  0  0  0  0  0  0  0  0  0  0
++         3  5  4  3  3  3  4  3  3  3  5  4  3  3  4  3  4
++         3  4  4  4  4  4  4  4  4  3  3  4  3  3  0  0  0
++         0  0  0  0  0  0  0  0  0  0  0  0  0  0  0  0  0
++         0  0  0  0  0  0  0  0  0  0  0  0  0  0  0  0  0
++         0  0  0  0  0  0  0  0  0  0  0  0  0  0  0  0  0
%c G  cc GPS ccc cccc cccc cccc cccc ccccc ccccc ccccc ccccc
%c cc cc ccc ccc cccc cccc cccc cccc ccccc ccccc ccccc ccccc
%f  1.2500000  1.025000000  0.00000000000  0.000000000000000
%f  0.0000000  0.000000000  0.00000000000  0.000000000000000
%i    0    0    0    0      0      0      0      0         0
%i    0    0    0    0      0      0      0      0         0
/* ULTRA ORBIT COMBINATION 20096_00 (58313.000) FROM:       
/* cou emu esu gfu ngu siu usu whu                          
/* REFERENCED TO emu CLOCK AND TO WEIGHTED MEAN POLE:       
/* PCV:IGS14_2007 OL/AL:FES2004  NONE     Y  ORB:CMB CLK:CMB
*  2018  7 13  3 45  0.00000000
PG01 -13234.539718  16374.505998  15844.619684    -65.223235  6  9  8 187       
PG02  14317.132205   6865.915261 -20765.556862     59.391259  6  9  9 220       
PG03 -21994.178866  13548.436236  -6051.022841    104.775603  7  7  8 155       
PG05  23363.132979    -36.040208 -12938.975160     -4.692998  5  9  8 192       
PG06   7205.496902  21003.210159 -14524.971470    387.687403  5 10 10 173       
PG07  -5504.994238  25608.563648  -2196.279806    159.854338  8 11 11 188       
PG08 -20484.252018   -818.220913  17013.276729   -107.979616  7 10    179       
PG09  -2651.942172  16456.719338 -20702.035258    513.797366  7  9  9 176       
PG10  -4801.535774 -14469.123188  21788.227338    188.825072  9  6  6 203       
PG11 -12392.017267  12161.321462  19577.675715   -730.297381  8  9  6 177       
PG12  24540.231366  -9711.166069  -2065.498732    321.346326  2 10  6 184       
PG13  21593.939186   9924.282556  11759.767047    -92.491911  8  8  7 186       
PG14 -18821.285678 -18812.803285   1862.684954    -97.611933  8  8  7 165       
PG15  19559.002935  -3108.786323  17655.484105   -350.869386  7  6  9 187       
PG16 -22806.846000  -2431.045146 -13905.826903     17.982933  9  9  9 196       
PG17  12827.395900  20735.315381  11066.169925    -78.818959  8  7  9 144       
PG18 -15058.960475   7592.258114  20009.774112     32.949596  8 11  2 187       
PG19  18407.303634  18922.459245   1690.915668   -420.865284  7  9  9 221       
PG20   5136.480233 -18387.861750  18312.018368    512.290525  7  8  6 202       
PG21    893.443873 -26536.313041   1890.788814   -368.327309  7  7  8 215       
PG22 -24615.315091   9651.966244   2648.165384   -455.971581  8  8  6 221       
PG23 -13958.684802   8363.627457 -20761.018358   -214.569303  7 10  7 149       
PG24  14384.692445 -12804.257436  18048.826443    -52.466880  4  4  7 214       
PG25  15080.665751 -16572.451782 -14260.076935   -615.247221  5  7  9 148       
PG26 -15315.921166  -8717.197806 -19920.882902    -85.625084  9 11  5 127       
PG27 -22985.544734 -11198.703926   7590.084720    361.295112  3  8  8  90       
PG28    625.204410  15300.153087  22328.553242    730.797101  4  3  6 205       
PG29   5150.554887 -14596.727480 -21610.601898    415.807347  9 11  1 183       
PG30    927.946937  25311.480843   7711.764322     51.262938  9  7 10 136       
PG31  -8061.247749 -19355.382321 -16014.047676    108.129455  5 10  5 210       
PG32 -13885.731284 -20047.168905  10674.545585   -476.274046  7  6  6 178       
*  2018  7 13  4  0  0.00000000
PG01 -13186.097074  14413.687861  17692.528676    -65.226583  6  9  8 187       
PG02  14127.173268   9305.202316 -19972.835750     59.381319  6  9 10 218       
PG03 -22582.030576  13534.475940  -3256.596356    104.781096  6  7  8 163       
PG05  22021.670756    828.284384 -15084.330676     -4.692800  6  9  8 192       
PG06   6874.394290  22513.004009 -12247.898851    387.683912  4  9 10 138       
PG07  -5746.403794  25131.697795  -5034.147682    159.848794  8 12 11 193       
PG08 -21888.235375  -1987.293651  15064.736678   -107.980595  6 10    177       
PG09  -4655.017497  15126.313905 -21354.938986    513.796840  7  9  9 169       
PG10  -2539.216728 -15453.900187  21476.099532    188.824948  9  6  6 201       
PG11 -13249.209626   9906.862378  20240.841589   -730.295911  8 10  5 175       
PG12  24654.488427  -9544.753248    850.493319    321.344127     9  7 182       
PG13  22345.168641  10901.556740   9245.375232    -92.491716  8  8  7 184       
PG14 -18408.779638 -18775.175541   4675.225338    -97.611934  8  8  8 163       
PG15  21136.493027  -1931.779873  15980.354734   -350.868787  6  5  9 187       
PG16 -21268.152040  -3084.821222 -16037.126291     17.981427 10  9  9 199       
PG17  11691.177133  20006.802166  13476.776388    -78.815333  8  7  9 152       
PG18 -15007.044854   5152.349805  20807.795923     32.953622  8 11    189       
PG19  17972.979100  18821.965494   4564.965057   -420.862290  6  9  9 221       
PG20   6996.410551 -19248.659180  16746.782312    512.291128  7  9  7 199       
PG21   1190.755723 -26490.736204   -931.066361   -368.322748  7  8  8 213       
PG22 -24390.202382   9141.500668   5382.784482   -455.982619  8  8  5 218       
PG23 -15870.422717   6931.610453 -19948.555310   -214.568489  6  9  7 151       
PG24  14420.000304 -10618.132721  19406.257339    -52.466702  4  5  7 216       
PG25  16506.249320 -17003.799297 -11935.884195   -615.252333  5  7  8 137       
PG26 -13244.544533  -9788.773725 -20873.527220    -85.614176 10 11  5 135       
PG27 -23460.171931 -11762.684792   4833.948365    361.293097  4  8  8  97       
PG28  -1633.537180  16054.605359  21726.890110    730.799546  5  4  7 202       
PG29   7090.393603 -13041.321174 -22051.123268    415.801601  8 11  3 187       
PG30    517.689995  25988.392352   5007.441901     51.258762  9  6 10 153       
PG31  -7627.824139 -21046.485368 -13927.072622    108.127033  5 10  5 209       
PG32 -12660.087240 -19441.905399  13053.608022   -476.266925  8  6  5 181       
*  2018  7 13  4 15  0.00000000
PG01 -13232.278609  12260.594293  19228.885669    -65.230006  5  7  8 180       
PG02  14057.072550  11634.154881 -18821.032579     59.371949  6  9  9 220       
PG03 -22886.004705  13403.277264   -405.914049    104.786641  6  7  7 143       
PG05  20526.824700   1868.537049 -16974.293626     -4.692162  6  9  8 192       
PG06   6635.787366  23768.063301  -9759.434515    387.680508  5  9 10 175       
PG07  -5993.052822  24347.328415  -7782.428023    159.843265  8 12 10 187       
PG08 -23153.327574  -2955.579709  12859.420678   -107.982105  7 10    181       
PG09  -6768.015914  13871.499675 -21641.219210    513.796214  7  9  8 176       
PG10   -379.642866 -16530.134644  20795.260589    188.824790  8  5  7 197       
PG11 -14221.415872   7636.298462  20538.767528   -730.294149  7 10  5 184       
PG12  24475.080691  -9248.616863   3751.643590    321.341580     9  7 181       
PG13  22919.409025  11650.040729   6571.237673    -92.491303  8  8  6 188       
PG14 -17747.483501 -18570.641467   7408.635545    -97.611851  8  8  8 172       
PG15  22584.352882   -928.637913  14030.434949   -350.868104  5     8 180       
PG16 -19562.259584  -3913.452806 -17900.205150     17.979881 10  9  8 200       
PG17  10308.004897  19194.599542  15661.784859    -78.812082  9  8  9 145       
PG18 -15074.651399   2642.827641  21231.458058     32.957927  8 11  2 193       
PG19  17276.743539  18547.289883   7359.183220   -420.859679  5  8  9 222       
PG20   8652.744372 -20087.791890  14889.940728    512.291421  7 10  7 202       
PG21   1498.534925 -26141.027314  -3736.773332   -368.317768  8  9  9 215       
PG22 -23929.261737   8468.388101   8025.169054   -455.993462  8  8  4 220       
PG23 -17750.461583   5657.224160 -18787.221815   -214.567959  5  9  6 150       
PG24  14560.381684  -8303.072436  20423.894863    -52.466760  4  6  6 215       
PG25  17664.206370 -17384.242186  -9405.686676   -615.257427  2  4  8 139       
PG26 -11153.254160 -11007.936522 -21468.138185    -85.603168 11 11  6 127       
PG27 -23698.337459 -12130.559142   1995.762582    361.291092  5  8  8  81       
PG28  -3767.193992  16905.363739  20771.832133    730.802163  4  4  7 206       
PG29   9137.163898 -11579.920989 -22113.156743    415.795472  8 11  5 183       
PG30    170.514693  26374.535411   2216.073273     51.254589  9  5 10 131       
PG31  -7300.013084 -22507.403358 -11595.077924    108.124820  6 10  5 208       
PG32 -11187.963073 -18764.859978  15209.541208   -476.259805  8  7  4 175       
EOF
